CCSDS_OMM_VERS = 2.0
CREATION_DATE  = 
ORIGINATOR     = 

OBJECT_NAME    = STARLINK-36381
OBJECT_ID      = 2026-037W
CENTER_NAME    = EARTH
REF_FRAME      = TEME
TIME_SYSTEM    = UTC
MEAN_ELEMENT_THEORY = SGP/SGP4

EPOCH          = 2026-03-14T14:43:57.049536
MEAN_MOTION    = 15.82151339
ECCENTRICITY   = .00013037
INCLINATION    = 42.9988
RA_OF_ASC_NODE = 168.1745
ARG_OF_PERICENTER = 283.6291
MEAN_ANOMALY   = 76.4435

EPHEMERIS_TYPE = 0
CLASSIFICATION_TYPE = U
NORAD_CAT_ID   = 67952
ELEMENT_SET_NO = 999
REV_AT_EPOCH   = 403
BSTAR          = .15902444E-2
MEAN_MOTION_DOT = .350442E-2
MEAN_MOTION_DDOT = 0

CCSDS_OMM_VERS = 2.0
CREATION_DATE  = 
ORIGINATOR     = 

OBJECT_NAME    = STARLINK-36824
OBJECT_ID      = 2026-037X
CENTER_NAME    = EARTH
REF_FRAME      = TEME
TIME_SYSTEM    = UTC
MEAN_ELEMENT_THEORY = SGP/SGP4

EPOCH          = 2026-03-14T14:45:15.937056
MEAN_MOTION    = 15.81012632
ECCENTRICITY   = .00040953
INCLINATION    = 42.9981
RA_OF_ASC_NODE = 168.1807
ARG_OF_PERICENTER = 296.0978
MEAN_ANOMALY   = 63.9472

EPHEMERIS_TYPE = 0
CLASSIFICATION_TYPE = U
NORAD_CAT_ID   = 67953
ELEMENT_SET_NO = 999
REV_AT_EPOCH   = 403
BSTAR          = -.37267934E-2
MEAN_MOTION_DOT = -.693005E-2
MEAN_MOTION_DDOT = 0

CCSDS_OMM_VERS = 2.0
CREATION_DATE  = 
ORIGINATOR     = 

OBJECT_NAME    = STARLINK-36869
OBJECT_ID      = 2026-037Y
CENTER_NAME    = EARTH
REF_FRAME      = TEME
TIME_SYSTEM    = UTC
MEAN_ELEMENT_THEORY = SGP/SGP4

EPOCH          = 2026-03-14T14:42:55.373760
MEAN_MOTION    = 15.82123317
ECCENTRICITY   = .00020266
INCLINATION    = 42.9984
RA_OF_ASC_NODE = 168.1671
ARG_OF_PERICENTER = 272.4890
MEAN_ANOMALY   = 87.5750

EPHEMERIS_TYPE = 0
CLASSIFICATION_TYPE = U
NORAD_CAT_ID   = 67954
ELEMENT_SET_NO = 999
REV_AT_EPOCH   = 403
BSTAR          = .28843037E-2
MEAN_MOTION_DOT = .658621E-2
MEAN_MOTION_DDOT = 0

CCSDS_OMM_VERS = 2.0
CREATION_DATE  = 
ORIGINATOR     = 

OBJECT_NAME    = STARLINK-36872
OBJECT_ID      = 2026-037Z
CENTER_NAME    = EARTH
REF_FRAME      = TEME
TIME_SYSTEM    = UTC
MEAN_ELEMENT_THEORY = SGP/SGP4

EPOCH          = 2026-03-14T14:40:42.738528
MEAN_MOTION    = 15.82174824
ECCENTRICITY   = .00010888
INCLINATION    = 42.9983
RA_OF_ASC_NODE = 168.1542
ARG_OF_PERICENTER = 285.3759
MEAN_ANOMALY   = 74.6992

EPHEMERIS_TYPE = 0
CLASSIFICATION_TYPE = U
NORAD_CAT_ID   = 67955
ELEMENT_SET_NO = 999
REV_AT_EPOCH   = 403
BSTAR          = .18597575E-2
MEAN_MOTION_DOT = .413427E-2
MEAN_MOTION_DDOT = 0

CCSDS_OMM_VERS = 2.0
CREATION_DATE  = 
ORIGINATOR     = 

OBJECT_NAME    = STARLINK-36918
OBJECT_ID      = 2026-037AA
CENTER_NAME    = EARTH
REF_FRAME      = TEME
TIME_SYSTEM    = UTC
MEAN_ELEMENT_THEORY = SGP/SGP4

EPOCH          = 2026-03-14T14:39:38.109600
MEAN_MOTION    = 15.82151110
ECCENTRICITY   = .00012973
INCLINATION    = 42.9985
RA_OF_ASC_NODE = 168.1483
ARG_OF_PERICENTER = 292.9498
MEAN_ANOMALY   = 67.1237

EPHEMERIS_TYPE = 0
CLASSIFICATION_TYPE = U
NORAD_CAT_ID   = 67956
ELEMENT_SET_NO = 999
REV_AT_EPOCH   = 403
BSTAR          = .17234072E-2
MEAN_MOTION_DOT = .381201E-2
MEAN_MOTION_DDOT = 0

CCSDS_OMM_VERS = 2.0
CREATION_DATE  = 
ORIGINATOR     = 

OBJECT_NAME    = STARLINK-36829
OBJECT_ID      = 2026-037AB
CENTER_NAME    = EARTH
REF_FRAME      = TEME
TIME_SYSTEM    = UTC
MEAN_ELEMENT_THEORY = SGP/SGP4

EPOCH          = 2026-03-14T14:41:47.393376
MEAN_MOTION    = 15.82154344
ECCENTRICITY   = .00016032
INCLINATION    = 42.9986
RA_OF_ASC_NODE = 168.1611
ARG_OF_PERICENTER = 288.5210
MEAN_ANOMALY   = 71.5488

EPHEMERIS_TYPE = 0
CLASSIFICATION_TYPE = U
NORAD_CAT_ID   = 67957
ELEMENT_SET_NO = 999
REV_AT_EPOCH   = 403
BSTAR          = .16482354E-2
MEAN_MOTION_DOT = .363861E-2
MEAN_MOTION_DDOT = 0

CCSDS_OMM_VERS = 2.0
CREATION_DATE  = 
ORIGINATOR     = 

OBJECT_NAME    = STARLINK-36799
OBJECT_ID      = 2026-037AC
CENTER_NAME    = EARTH
REF_FRAME      = TEME
TIME_SYSTEM    = UTC
MEAN_ELEMENT_THEORY = SGP/SGP4

EPOCH          = 2026-03-14T14:38:33.195552
MEAN_MOTION    = 15.82147305
ECCENTRICITY   = .00013312
INCLINATION    = 42.9983
RA_OF_ASC_NODE = 168.1427
ARG_OF_PERICENTER = 269.9001
MEAN_ANOMALY   = 90.1719

EPHEMERIS_TYPE = 0
CLASSIFICATION_TYPE = U
NORAD_CAT_ID   = 67958
ELEMENT_SET_NO = 999
REV_AT_EPOCH   = 403
BSTAR          = .15094535E-2
MEAN_MOTION_DOT = .331823E-2
MEAN_MOTION_DDOT = 0

CCSDS_OMM_VERS = 2.0
CREATION_DATE  = 
ORIGINATOR     = 

OBJECT_NAME    = STARLINK-36834
OBJECT_ID      = 2026-037AD
CENTER_NAME    = EARTH
REF_FRAME      = TEME
TIME_SYSTEM    = UTC
MEAN_ELEMENT_THEORY = SGP/SGP4

EPOCH          = 2026-03-14T14:36:23.425344
MEAN_MOTION    = 15.82124715
ECCENTRICITY   = .00021111
INCLINATION    = 42.9984
RA_OF_ASC_NODE = 168.1294
ARG_OF_PERICENTER = 256.4307
MEAN_ANOMALY   = 103.6330

EPHEMERIS_TYPE = 0
CLASSIFICATION_TYPE = U
NORAD_CAT_ID   = 67959
ELEMENT_SET_NO = 999
REV_AT_EPOCH   = 403
BSTAR          = .1277542E-2
MEAN_MOTION_DOT = .27873E-2
MEAN_MOTION_DDOT = 0

CCSDS_OMM_VERS = 2.0
CREATION_DATE  = 
ORIGINATOR     = 

OBJECT_NAME    = STARLINK-36841
OBJECT_ID      = 2026-037AE
CENTER_NAME    = EARTH
REF_FRAME      = TEME
TIME_SYSTEM    = UTC
MEAN_ELEMENT_THEORY = SGP/SGP4

EPOCH          = 2026-03-14T14:37:28.335072
MEAN_MOTION    = 15.82172007
ECCENTRICITY   = .00016952
INCLINATION    = 42.9983
RA_OF_ASC_NODE = 168.1356
ARG_OF_PERICENTER = 258.1691
MEAN_ANOMALY   = 101.8991

EPHEMERIS_TYPE = 0
CLASSIFICATION_TYPE = U
NORAD_CAT_ID   = 67960
ELEMENT_SET_NO = 999
REV_AT_EPOCH   = 403
BSTAR          = .17582404E-2
MEAN_MOTION_DOT = .389679E-2
MEAN_MOTION_DDOT = 0

CCSDS_OMM_VERS = 2.0
CREATION_DATE  = 
ORIGINATOR     = 

OBJECT_NAME    = STARLINK-36912
OBJECT_ID      = 2026-038A
CENTER_NAME    = EARTH
REF_FRAME      = TEME
TIME_SYSTEM    = UTC
MEAN_ELEMENT_THEORY = SGP/SGP4

EPOCH          = 2026-03-14T14:00:01.999872
MEAN_MOTION    = 15.75296994
ECCENTRICITY   = .00012375
INCLINATION    = 97.2858
RA_OF_ASC_NODE = 84.1290
ARG_OF_PERICENTER = 113.2363
MEAN_ANOMALY   = 9.5309

EPHEMERIS_TYPE = 0
CLASSIFICATION_TYPE = U
NORAD_CAT_ID   = 67961
ELEMENT_SET_NO = 999
REV_AT_EPOCH   = 398
BSTAR          = -.11805831E-2
MEAN_MOTION_DOT = -.173497E-2
MEAN_MOTION_DDOT = 0

CCSDS_OMM_VERS = 2.0
CREATION_DATE  = 
ORIGINATOR     = 

OBJECT_NAME    = STARLINK-36881
OBJECT_ID      = 2026-038B
CENTER_NAME    = EARTH
REF_FRAME      = TEME
TIME_SYSTEM    = UTC
MEAN_ELEMENT_THEORY = SGP/SGP4

EPOCH          = 2026-03-14T14:00:01.999872
MEAN_MOTION    = 15.75287554
ECCENTRICITY   = .00013534
INCLINATION    = 97.2870
RA_OF_ASC_NODE = 84.1305
ARG_OF_PERICENTER = 80.4567
MEAN_ANOMALY   = 48.3061

EPHEMERIS_TYPE = 0
CLASSIFICATION_TYPE = U
NORAD_CAT_ID   = 67962
ELEMENT_SET_NO = 999
REV_AT_EPOCH   = 398
BSTAR          = -.12140467E-2
MEAN_MOTION_DOT = -.178243E-2
MEAN_MOTION_DDOT = 0

CCSDS_OMM_VERS = 2.0
CREATION_DATE  = 
ORIGINATOR     = 

OBJECT_NAME    = STARLINK-36357
OBJECT_ID      = 2026-038C
CENTER_NAME    = EARTH
REF_FRAME      = TEME
TIME_SYSTEM    = UTC
MEAN_ELEMENT_THEORY = SGP/SGP4

EPOCH          = 2026-03-14T14:00:01.999872
MEAN_MOTION    = 15.75296419
ECCENTRICITY   = .00013357
INCLINATION    = 97.2870
RA_OF_ASC_NODE = 84.1350
ARG_OF_PERICENTER = 122.3923
MEAN_ANOMALY   = 18.3747

EPHEMERIS_TYPE = 0
CLASSIFICATION_TYPE = U
NORAD_CAT_ID   = 67963
ELEMENT_SET_NO = 999
REV_AT_EPOCH   = 398
BSTAR          = -.13192492E-2
MEAN_MOTION_DOT = -.193411E-2
MEAN_MOTION_DDOT = 0

