STARLINK-36381          
1 67952U 26037W   26073.61385474  .00350442  00000+0  15902-2 0  9999
2 67952  42.9988 168.1745 0001303 283.6291  76.4435 15.82151339  4035
STARLINK-36824          
1 67953U 26037X   26073.61476779 -.00693005  00000+0 -37268-2 0  9995
2 67953  42.9981 168.1807 0004095 296.0978  63.9472 15.81012632  4032
STARLINK-36869          
1 67954U 26037Y   26073.61314090  .00658621  00000+0  28843-2 0  9995
2 67954  42.9984 168.1671 0002026 272.4890  87.5750 15.82123317  4033
STARLINK-36872          
1 67955U 26037Z   26073.61160577  .00413427  00000+0  18598-2 0  9994
2 67955  42.9983 168.1542 0001088 285.3759  74.6992 15.82174824  4038
STARLINK-36918          
1 67956U 26037AA  26073.61085775  .00381201  00000+0  17234-2 0  9991
2 67956  42.9985 168.1483 0001297 292.9498  67.1237 15.82151110  4033
STARLINK-36829          
1 67957U 26037AB  26073.61235409  .00363861  00000+0  16482-2 0  9999
2 67957  42.9986 168.1611 0001603 288.5210  71.5488 15.82154344  4031
STARLINK-36799          
1 67958U 26037AC  26073.61010643  .00331823  00000+0  15095-2 0  9993
2 67958  42.9983 168.1427 0001331 269.9001  90.1719 15.82147305  4036
STARLINK-36834          
1 67959U 26037AD  26073.60860446  .00278730  00000+0  12775-2 0  9996
2 67959  42.9984 168.1294 0002111 256.4307 103.6330 15.82124715  4036
STARLINK-36841          
1 67960U 26037AE  26073.60935573  .00389679  00000+0  17582-2 0  9998
2 67960  42.9983 168.1356 0001695 258.1691 101.8991 15.82172007  4037
STARLINK-36912          
1 67961U 26038A   26073.58335648 -.00173497  00000+0 -11806-2 0  9998
2 67961  97.2858  84.1290 0001237 113.2363   9.5309 15.75296994  3989
STARLINK-36881          
1 67962U 26038B   26073.58335648 -.00178243  00000+0 -12140-2 0  9995
2 67962  97.2870  84.1305 0001353  80.4567  48.3061 15.75287554  3989
STARLINK-36357          
1 67963U 26038C   26073.58335648 -.00193411  00000+0 -13192-2 0  9998
2 67963  97.2870  84.1350 0001335 122.3923  18.3747 15.75296419  3980
